GLOBALSTAR M068         
1 32266U 07048D   25342.85494368 -.00000059  00000+0  24811-3 0  9994
2 32266  51.9867 129.8041 0001867 132.6579  31.7885 12.62834975839624
GLOBALSTAR M079         
1 37188U 10054A   25343.26202447 -.00000083  00000+0  11433-3 0  9997
2 37188  52.0057 326.8309 0000388  11.4076  91.9845 12.62269045698564
GLOBALSTAR M074         
1 37189U 10054B   25343.26870153 -.00000087  00000+0  92566-4 0  9994
2 37189  52.0033 326.1056 0000507  54.4068 319.1059 12.62263978699171
GLOBALSTAR M076         
1 37190U 10054C   25343.15165360 -.00000088  00000+0  86230-4 0  9993
2 37190  52.0046 326.6503 0000550  35.0694  45.0972 12.62267887698875
GLOBALSTAR M077         
1 37191U 10054D   25343.22391226 -.00000067  00000+0  19703-3 0  9991
2 37191  52.0110 301.8412 0000711  10.9987  93.3443 11.68138648698942
GLOBALSTAR M075         
1 37192U 10054E   25343.24319782 -.00000090  00000+0  77368-4 0  9999
2 37192  51.9967   8.5289 0000321 104.3510 333.5894 12.62270283697957
GLOBALSTAR M073         
1 37193U 10054F   25343.15022175 -.00000076  00000+0  15695-3 0  9995
2 37193  52.0069 282.7683 0000699  36.3111 336.7951 12.62264971699932
GLOBALSTAR M083         
1 37739U 11033A   25343.11337374 -.00000075  00000+0  15806-3 0  9998
2 37739  51.9849 231.3693 0000823  58.1907  89.3664 12.62265437668944
GLOBALSTAR M088         
1 37740U 11033B   25342.76088655 -.00000109  00000+0 -27343-4 0  9994
2 37740  52.0192 138.4071 0001081 105.3970 358.8170 12.62271005664443
GLOBALSTAR M091         
1 37741U 11033C   25343.10575201 -.00000101  00000+0  17126-4 0  9991
2 37741  51.9994 100.6046 0000774 125.2143  46.2163 12.62262337665276
GLOBALSTAR M085         
1 37742U 11033D   25343.22067551 -.00000080  00000+0  12986-3 0  9993
2 37742  52.0146  51.3807 0000430 150.3631 244.2556 12.62267189665800
GLOBALSTAR M081         
1 37743U 11033E   25343.16425795 -.00000079  00000+0  13612-3 0  9990
2 37743  51.9974  54.2033 0000384 120.0833 258.5831 12.62270756665940
GLOBALSTAR M089         
1 37744U 11033F   25343.29654328 -.00000077  00000+0  15136-3 0  9992
2 37744  51.9954   7.9965 0000555  79.6333   1.1273 12.62262090666802
GLOBALSTAR M084         
1 38040U 11080A   25343.08553126 -.00000082  00000+0  12102-3 0  9991
2 38040  52.0005 236.0214 0001167  64.3855  75.9037 12.62266378644753
GLOBALSTAR M080         
1 38041U 11080B   25343.22356892 -.00000059  00000+0  24957-3 0  9994
2 38041  52.0052 237.2533 0000636  97.7205  80.1466 12.62264684644899
GLOBALSTAR M082         
1 38042U 11080C   25343.31678935 -.00000090  00000+0  79379-4 0  9994
2 38042  52.0051 192.4505 0000851  98.3036  72.9865 12.62266109645615
GLOBALSTAR M092         
1 38043U 11080D   25343.20413687 -.00000070  00000+0  19072-3 0  9995
2 38043  52.0094 283.1793 0000648  58.3695  80.3197 12.62268154644051
GLOBALSTAR M090         
1 38044U 11080E   25343.02323016 -.00000094  00000+0  54639-4 0  9997
2 38044  52.0099 187.2390 0000898  80.4772  75.1214 12.62265320645698
GLOBALSTAR M086         
1 38045U 11080F   25343.04973616 -.00000087  00000+0  91691-4 0  9998
2 38045  51.9872 187.3976 0001319  31.2485 134.2709 12.62280947645644
GLOBALSTAR M097         
1 39072U 13005A   25342.72466943 -.00000109  00000+0 -31067-4 0  9999
2 39072  52.0041 103.1187 0000671 107.2093 252.8847 12.62267805592856
GLOBALSTAR M093         
1 39073U 13005B   25342.69859287 -.00000094  00000+0  55639-4 0  9996
2 39073  52.0104  96.4735 0000431 117.2882 242.8029 12.62270997592803
GLOBALSTAR M094         
1 39074U 13005C   25343.33189728 -.00000084  00000+0  10763-3 0  9992
2 39074  51.9977   8.8528 0000048  71.4815 288.6057 12.62265265594496
GLOBALSTAR M096         
1 39075U 13005D   25343.18659745 -.00000084  00000+0  10859-3 0  9993
2 39075  52.0088  57.9444 0000399 141.2680 218.8216 12.62269220593394
GLOBALSTAR M078         
1 39076U 13005E   25342.84389492 -.00000116  00000+0 -67448-4 0  9999
2 39076  51.9845 143.2632 0001059 152.7077 207.3845 12.62272387591974
GLOBALSTAR M095         
1 39077U 13005F   25342.79092138 -.00000113  00000+0 -52593-4 0  9994
2 39077  52.0055 140.7576 0000703 122.5113 237.5822 12.62267250591827
GLOBALSTAR M087         
1 52888U 22064A   25343.12066774 -.00000069  00000+0  19195-3 0  9998
2 52888  52.0007 281.1008 0000470  40.7063 319.3839 12.62261079167138
